{
  "type": "FeatureCollection",
  "features": [
    {
      "type": "Feature",
      "properties": {
        "norad_id": 66601,
        "name": "STARLINK-35978",
        "group": "last-30-days",
        "lat": -35.71883174533349,
        "lon": 73.90753133775577,
        "alt_km": 416.9277206868819,
        "timestamp": "2025-12-10T21:43:20.862767+00:00",
        "meta_object_name": "STARLINK-35978",
        "meta_object_id": "2025-270P",
        "meta_epoch": "2025-12-10T14:00:03.000384",
        "meta_mean_motion": 15.50688364,
        "meta_eccentricity": 0.00018854,
        "meta_inclination": 42.9996,
        "meta_ra_of_asc_node": 205.2857,
        "meta_arg_of_pericenter": 252.7748,
        "meta_mean_anomaly": 347.9494,
        "meta_ephemeris_type": 0,
        "meta_classification_type": "U",
        "meta_norad_cat_id": 66601,
        "meta_element_set_no": 999,
        "meta_rev_at_epoch": 389,
        "meta_bstar": -0.0038230387,
        "meta_mean_motion_dot": -0.00219323,
        "meta_mean_motion_ddot": 0,
        "tle_line1": "1 66601U 25270P   25344.58336806 -.00219323  00000+0 -38230-2 0  9991",
        "tle_line2": "2 66601  42.9996 205.2857 0001885 252.7748 347.9494 15.50688364  3892"
      },
      "geometry": {
        "type": "Point",
        "coordinates": [
          73.90753133775577,
          -35.71883174533349
        ]
      }
    },
    {
      "type": "Feature",
      "properties": {
        "norad_id": 66602,
        "name": "STARLINK-36050",
        "group": "last-30-days",
        "lat": -36.528802644581525,
        "lon": 76.0467516774684,
        "alt_km": 417.0925045038266,
        "timestamp": "2025-12-10T21:43:20.862777+00:00",
        "meta_object_name": "STARLINK-36050",
        "meta_object_id": "2025-270Q",
        "meta_epoch": "2025-12-10T14:00:03.000384",
        "meta_mean_motion": 15.50665996,
        "meta_eccentricity": 0.00017095,
        "meta_inclination": 42.9996,
        "meta_ra_of_asc_node": 205.281,
        "meta_arg_of_pericenter": 258.2318,
        "meta_mean_anomaly": 344.4168,
        "meta_ephemeris_type": 0,
        "meta_classification_type": "U",
        "meta_norad_cat_id": 66602,
        "meta_element_set_no": 999,
        "meta_rev_at_epoch": 395,
        "meta_bstar": -0.0030731006,
        "meta_mean_motion_dot": -0.00177162,
        "meta_mean_motion_ddot": 0,
        "tle_line1": "1 66602U 25270Q   25344.58336806 -.00177162  00000+0 -30731-2 0  9994",
        "tle_line2": "2 66602  42.9996 205.2810 0001709 258.2318 344.4168 15.50665996  3954"
      },
      "geometry": {
        "type": "Point",
        "coordinates": [
          76.0467516774684,
          -36.528802644581525
        ]
      }
    },
    {
      "type": "Feature",
      "properties": {
        "norad_id": 66603,
        "name": "STARLINK-36048",
        "group": "last-30-days",
        "lat": -37.295163190048626,
        "lon": 78.21504280130462,
        "alt_km": 417.21666886205276,
        "timestamp": "2025-12-10T21:43:20.862788+00:00",
        "meta_object_name": "STARLINK-36048",
        "meta_object_id": "2025-270R",
        "meta_epoch": "2025-12-10T14:00:03.000384",
        "meta_mean_motion": 15.50662819,
        "meta_eccentricity": 0.00016062,
        "meta_inclination": 43,
        "meta_ra_of_asc_node": 205.2753,
        "meta_arg_of_pericenter": 236.106,
        "meta_mean_anomaly": 8.4548,
        "meta_ephemeris_type": 0,
        "meta_classification_type": "U",
        "meta_norad_cat_id": 66603,
        "meta_element_set_no": 999,
        "meta_rev_at_epoch": 395,
        "meta_bstar": -0.0037320591,
        "meta_mean_motion_dot": -0.0021405,
        "meta_mean_motion_ddot": 0,
        "tle_line1": "1 66603U 25270R   25344.58336806 -.00214050  00000+0 -37321-2 0  9995",
        "tle_line2": "2 66603  43.0000 205.2753 0001606 236.1060   8.4548 15.50662819  3954"
      },
      "geometry": {
        "type": "Point",
        "coordinates": [
          78.21504280130462,
          -37.295163190048626
        ]
      }
    },
    {
      "type": "Feature",
      "properties": {
        "norad_id": 66604,
        "name": "STARLINK-35977",
        "group": "last-30-days",
        "lat": -38.02604300751959,
        "lon": 80.44528275798744,
        "alt_km": 417.2920211896944,
        "timestamp": "2025-12-10T21:43:20.862798+00:00",
        "meta_object_name": "STARLINK-35977",
        "meta_object_id": "2025-270S",
        "meta_epoch": "2025-12-10T14:00:03.000384",
        "meta_mean_motion": 15.50659314,
        "meta_eccentricity": 0.00015397,
        "meta_inclination": 42.9999,
        "meta_ra_of_asc_node": 205.2704,
        "meta_arg_of_pericenter": 238.3056,
        "meta_mean_anomaly": 8.1733,
        "meta_ephemeris_type": 0,
        "meta_classification_type": "U",
        "meta_norad_cat_id": 66604,
        "meta_element_set_no": 999,
        "meta_rev_at_epoch": 405,
        "meta_bstar": -0.0035866896,
        "meta_mean_motion_dot": -0.0020591,
        "meta_mean_motion_ddot": 0,
        "tle_line1": "1 66604U 25270S   25344.58336806 -.00205910  00000+0 -35867-2 0  9994",
        "tle_line2": "2 66604  42.9999 205.2704 0001539 238.3056   8.1733 15.50659314  4051"
      },
      "geometry": {
        "type": "Point",
        "coordinates": [
          80.44528275798744,
          -38.02604300751959
        ]
      }
    },
    {
      "type": "Feature",
      "properties": {
        "norad_id": 66605,
        "name": "STARLINK-36052",
        "group": "last-30-days",
        "lat": -38.720727801811506,
        "lon": 82.74483374286655,
        "alt_km": 417.03928808151886,
        "timestamp": "2025-12-10T21:43:20.862808+00:00",
        "meta_object_name": "STARLINK-36052",
        "meta_object_id": "2025-270T",
        "meta_epoch": "2025-12-10T14:00:03.000384",
        "meta_mean_motion": 15.50677289,
        "meta_eccentricity": 0.00018676,
        "meta_inclination": 42.9997,
        "meta_ra_of_asc_node": 205.2668,
        "meta_arg_of_pericenter": 251.4968,
        "meta_mean_anomaly": 356.8993,
        "meta_ephemeris_type": 0,
        "meta_classification_type": "U",
        "meta_norad_cat_id": 66605,
        "meta_element_set_no": 999,
        "meta_rev_at_epoch": 405,
        "meta_bstar": -0.0034324755,
        "meta_mean_motion_dot": -0.00197418,
        "meta_mean_motion_ddot": 0,
        "tle_line1": "1 66605U 25270T   25344.58336806 -.00197418  00000+0 -34325-2 0  9996",
        "tle_line2": "2 66605  42.9997 205.2668 0001867 251.4968 356.8993 15.50677289  4053"
      },
      "geometry": {
        "type": "Point",
        "coordinates": [
          82.74483374286655,
          -38.720727801811506
        ]
      }
    },
    {
      "type": "Feature",
      "properties": {
        "norad_id": 66606,
        "name": "STARLINK-36063",
        "group": "last-30-days",
        "lat": -39.95351802177069,
        "lon": 87.3995708779729,
        "alt_km": 417.38553495841006,
        "timestamp": "2025-12-10T21:43:20.862820+00:00",
        "meta_object_name": "STARLINK-36063",
        "meta_object_id": "2025-270U",
        "meta_epoch": "2025-12-10T14:00:03.000384",
        "meta_mean_motion": 15.50659443,
        "meta_eccentricity": 0.00015492,
        "meta_inclination": 42.9998,
        "meta_ra_of_asc_node": 205.2561,
        "meta_arg_of_pericenter": 238.6143,
        "meta_mean_anomaly": 13.6181,
        "meta_ephemeris_type": 0,
        "meta_classification_type": "U",
        "meta_norad_cat_id": 66606,
        "meta_element_set_no": 999,
        "meta_rev_at_epoch": 405,
        "meta_bstar": -0.0035763866,
        "meta_mean_motion_dot": -0.00205336,
        "meta_mean_motion_ddot": 0,
        "tle_line1": "1 66606U 25270U   25344.58336806 -.00205336  00000+0 -35764-2 0  9994",
        "tle_line2": "2 66606  42.9998 205.2561 0001549 238.6143  13.6181 15.50659443  4055"
      },
      "geometry": {
        "type": "Point",
        "coordinates": [
          87.3995708779729,
          -39.95351802177069
        ]
      }
    },
    {
      "type": "Feature",
      "properties": {
        "norad_id": 66607,
        "name": "STARLINK-35993",
        "group": "last-30-days",
        "lat": -39.36378169435138,
        "lon": 85.06461106437582,
        "alt_km": 417.1030632164984,
        "timestamp": "2025-12-10T21:43:20.862830+00:00",
        "meta_object_name": "STARLINK-35993",
        "meta_object_id": "2025-270V",
        "meta_epoch": "2025-12-10T14:00:03.000384",
        "meta_mean_motion": 15.50689871,
        "meta_eccentricity": 0.00018332,
        "meta_inclination": 42.9998,
        "meta_ra_of_asc_node": 205.2619,
        "meta_arg_of_pericenter": 252.8377,
        "meta_mean_anomaly": 357.4731,
        "meta_ephemeris_type": 0,
        "meta_classification_type": "U",
        "meta_norad_cat_id": 66607,
        "meta_element_set_no": 999,
        "meta_rev_at_epoch": 395,
        "meta_bstar": -0.0038956891,
        "meta_mean_motion_dot": -0.0022338,
        "meta_mean_motion_ddot": 0,
        "tle_line1": "1 66607U 25270V   25344.58336806 -.00223380  00000+0 -38957-2 0  9991",
        "tle_line2": "2 66607  42.9998 205.2619 0001833 252.8377 357.4731 15.50689871  3959"
      },
      "geometry": {
        "type": "Point",
        "coordinates": [
          85.06461106437582,
          -39.36378169435138
        ]
      }
    }
  ]
}